NORAD_CAT_ID,OBJECT_NAME,OBJECT_TYPE,EPOCH,MEAN_MOTION,ECCENTRICITY,INCLINATION,RA_OF_ASC_NODE,ARG_OF_PERICENTER,MEAN_ANOMALY,BSTAR,MEAN_MOTION_DOT,MEAN_MOTION_DDOT,TLE_LINE0,TLE_LINE1,TLE_LINE2,SEMIMAJOR_AXIS,PERIOD,APOGEE,PERIGEE,DECAYED
55659.0,STARLINK-5477,PAYLOAD,2023-09-23 10:49:09,14.98334452,0.000327,69.9993,269.3677,270.6874,89.391,5.2408e-05,5.32e-06,0.0,0 STARLINK-5477,1 55659U 23021AH  23266.45079973  .00000532  00000-0  52408-4 0  9994,2 55659  69.9993 269.3677 0003270 270.6874  89.3910 14.98334452 34430,6950.179,96.107,574.317,569.771,0.0
55659.0,STARLINK-5477,PAYLOAD,2023-09-24 02:50:30,14.98324873,0.0003164,69.9996,267.6846,269.3726,90.7071,-7.3553e-05,-9.7e-06,0.0,0 STARLINK-5477,1 55659U 23021AH  23267.11840905 -.00000970  00000-0 -73553-4 0  9991,2 55659  69.9996 267.6846 0003164 269.3726  90.7071 14.98324873 34536,6950.209,96.107,574.273,569.875,0.0
55659.0,STARLINK-5477,PAYLOAD,2023-09-24 09:15:02,14.98326644,0.0003126,69.9995,267.0112,268.7826,91.2975,-4.7147e-05,-6.55e-06,0.0,0 STARLINK-5477,1 55659U 23021AH  23267.38544777 -.00000655  00000-0 -47147-4 0  9998,2 55659  69.9995 267.0112 0003126 268.7826  91.2975 14.98326644 34871,6950.203,96.107,574.241,569.896,0.0
55659.0,STARLINK-5477,PAYLOAD,2023-09-25 02:52:30,14.98333575,0.0003098,69.9996,265.1602,266.7447,93.3358,-2.0121e-05,-3.33e-06,0.0,0 STARLINK-5477,1 55659U 23021AH  23268.11980268 -.00000333  00000-0 -20121-4 0  9995,2 55659  69.9996 265.1602 0003098 266.7447  93.3358 14.98333575 34688,6950.182,96.107,574.2,569.894,0.0
55659.0,STARLINK-5477,PAYLOAD,2023-09-25 09:17:03,14.98334164,0.000305,69.9996,264.4863,269.2317,90.8493,3.3545e-05,3.07e-06,0.0,0 STARLINK-5477,1 55659U 23021AH  23268.38684064  .00000307  00000-0  33545-4 0  9992,2 55659  69.9996 264.4863 0003050 269.2317  90.8493 14.98334164 35027,6950.18,96.107,574.165,569.925,0.0
55659.0,STARLINK-5477,PAYLOAD,2023-09-25 17:17:43,14.98333974,0.0003176,69.9993,263.6448,271.5379,88.5416,4.1659e-05,4.04e-06,0.0,0 STARLINK-5477,1 55659U 23021AH  23268.72063962  .00000404  00000-0  41659-4 0  9991,2 55659  69.9993 263.6448 0003176 271.5379  88.5416 14.98333974 35079,6950.181,96.107,574.253,569.838,0.0
55659.0,STARLINK-5477,PAYLOAD,2023-09-26 02:54:31,14.98329337,0.0003211,69.999,262.6341,270.4917,89.5874,9.6835e-05,1.063e-05,0.0,0 STARLINK-5477,1 55659U 23021AH  23269.12120047  .00001063  00000-0  96835-4 0  9992,2 55659  69.9990 262.6341 0003211 270.4917  89.5874 14.98329337 34833,6950.195,96.107,574.292,569.828,0.0
55659.0,STARLINK-5477,PAYLOAD,2023-09-26 09:19:02,14.98349232,0.0003294,69.9991,261.9609,268.5151,91.5631,0.00027405,3.18e-05,0.0,0 STARLINK-5477,1 55659U 23021AH  23269.38822088  .00003180  00000-0  27405-3 0  9992,2 55659  69.9991 261.9609 0003294 268.5151  91.5631 14.98349232 34876,6950.133,96.106,574.288,569.709,0.0
55659.0,STARLINK-5477,PAYLOAD,2023-09-27 01:20:25,14.98325973,0.0003191,69.9989,260.277,268.958,91.1214,-0.0001045,-1.34e-05,0.0,0 STARLINK-5477,1 55659U 23021AH  23270.05584555 -.00001340  00000-0 -10450-3 0  9992,2 55659  69.9989 260.2770 0003191 268.9580  91.1214 14.98325973 34970,6950.205,96.107,574.288,569.853,0.0
55659.0,STARLINK-5477,PAYLOAD,2023-09-27 09:21:06,14.98313038,0.0003221,69.9989,259.4358,269.69,90.389,-0.00022726,-2.802e-05,0.0,0 STARLINK-5477,1 55659U 23021AH  23270.38965932 -.00002802  00000-0 -22726-3 0  9993,2 55659  69.9989 259.4358 0003221 269.6900  90.3890 14.98313038 35027,6950.245,96.108,574.349,569.872,0.0
55659.0,STARLINK-5477,PAYLOAD,2023-09-28 09:23:07,14.98328913,0.0003277,69.9989,256.9112,268.3847,91.6937,-0.00023954,-2.95e-05,0.0,0 STARLINK-5477,1 55659U 23021AH  23271.39105775 -.00002950  00000-0 -23954-3 0  9994,2 55659  69.9989 256.9112 0003277 268.3847  91.6937 14.98328913 35174,6950.196,96.107,574.339,569.784,0.0
55659.0,STARLINK-5477,PAYLOAD,2023-09-29 09:25:07,14.98324004,0.0003112,69.9992,254.3859,269.336,90.7442,0.00029159,3.387e-05,0.0,0 STARLINK-5477,1 55659U 23021AH  23272.39245192  .00003387  00000-0  29159-3 0  9999,2 55659  69.9992 254.3859 0003112 269.3360  90.7442 14.98324004 35322,6950.211,96.107,574.239,569.914,0.0
55659.0,STARLINK-5477,PAYLOAD,2023-09-30 03:02:35,14.98338275,0.000311,69.9992,252.5338,270.1578,89.9224,0.00028332,3.29e-05,0.0,0 STARLINK-5477,1 55659U 23021AH  23273.12680248  .00003290  00000-0  28332-3 0  9991,2 55659  69.9992 252.5338 0003110 270.1578  89.9224 14.98338275 35438,6950.167,96.106,574.194,569.871,0.0
55659.0,STARLINK-5477,PAYLOAD,2023-09-30 04:38:43,14.98339581,0.0002832,70.0,252.3667,266.1831,93.9005,0.00026977,3.128e-05,0.0,0 STARLINK-5477,1 55659U 23021AH  23273.19356210  .00003128  00000-0  26977-3 0  9990,2 55659  70.0000 252.3667 0002832 266.1831  93.9005 14.98339581 35748,6950.163,96.106,573.997,570.06,0.0
55659.0,STARLINK-5477,PAYLOAD,2023-09-30 15:51:41,14.98328219,0.0001532,70.0038,251.1856,301.2071,58.8937,0.00020759,2.385e-05,0.0,0 STARLINK-5477,1 55659U 23021AH  23273.66089234  .00002385  00000-0  20759-3 0  9997,2 55659  70.0038 251.1856 0001532 301.2071  58.8937 14.98328219 35514,6950.198,96.107,573.128,570.999,0.0
55659.0,STARLINK-5477,PAYLOAD,2023-10-01 01:28:29,14.98338665,0.0002596,69.9999,250.1799,269.7184,90.3678,-7.9928e-05,-1.047e-05,0.0,0 STARLINK-5477,1 55659U 23021AH  23274.06144771 -.00001047  00000-0 -79928-4 0  9999,2 55659  69.9999 250.1799 0002596 269.7184  90.3678 14.98338665 35571,6950.166,96.106,573.835,570.227,0.0
55659.0,STARLINK-5477,PAYLOAD,2023-10-01 07:53:01,14.98337885,0.0003019,69.9994,249.5061,269.7854,90.2959,-0.00011135,-1.422e-05,0.0,0 STARLINK-5477,1 55659U 23021AH  23274.32848689 -.00001422  00000-0 -11135-3 0  9999,2 55659  69.9994 249.5061 0003019 269.7854  90.2959 14.98337885 35917,6950.169,96.106,574.132,569.935,0.0
55659.0,STARLINK-5477,PAYLOAD,2023-10-02 03:06:37,14.98338015,0.000293,69.9994,247.4858,268.4247,91.6576,-0.00018473,-2.297e-05,0.0,0 STARLINK-5477,1 55659U 23021AH  23275.12960468 -.00002297  00000-0 -18473-3 0  9991,2 55659  69.9994 247.4858 0002930 268.4247  91.6576 14.98338015 35737,6950.168,96.106,574.07,569.997,0.0
55659.0,STARLINK-5477,PAYLOAD,2023-10-02 07:55:01,14.98340695,0.0002891,69.9995,246.9796,266.2798,93.8031,-0.00013728,-1.731e-05,0.0,0 STARLINK-5477,1 55659U 23021AH  23275.32988034 -.00001731  00000-0 -13728-3 0  9992,2 55659  69.9995 246.9796 0002891 266.2798  93.8031 14.98340695 36060,6950.16,96.106,574.034,570.016,0.0
55659.0,STARLINK-5477,PAYLOAD,2023-10-03 04:44:47,14.98324814,0.0002754,69.9997,244.7914,267.1493,92.9351,1.3057e-05,6.3e-07,0.0,0 STARLINK-5477,1 55659U 23021AH  23276.19776637  .00000063  00000-0  13057-4 0  9993,2 55659  69.9997 244.7914 0002754 267.1493  92.9351 14.98324814 35890,6950.209,96.107,573.988,570.16,0.0
55659.0,STARLINK-5477,PAYLOAD,2023-10-03 07:57:03,14.98326065,0.0002832,69.9997,244.4548,268.2272,91.8562,9.4804e-07,-8.2e-07,0.0,0 STARLINK-5477,1 55659U 23021AH  23276.33128632 -.00000082  00000-0  94804-6 0  9998,2 55659  69.9997 244.4548 0002832 268.2272  91.8562 14.98326065 36213,6950.205,96.107,574.038,570.102,0.0
55659.0,STARLINK-5477,PAYLOAD,2023-10-04 07:59:03,14.98338598,0.0002855,69.9999,241.9301,267.8128,92.2705,0.00010106,1.113e-05,0.0,0 STARLINK-5477,1 55659U 23021AH  23277.33267532  .00001113  00000-0  10106-3 0  9997,2 55659  69.9999 241.9301 0002855 267.8128  92.2705 14.98338598 36065,6950.166,96.106,574.016,570.047,0.0
55659.0,STARLINK-5477,PAYLOAD,2023-10-05 01:36:32,14.98330916,0.0002833,70.0001,240.0795,265.4158,94.6677,7.0666e-05,7.5e-06,0.0,0 STARLINK-5477,1 55659U 23021AH  23278.06703950  .00000750  00000-0  70666-4 0  9991,2 55659  70.0001 240.0795 0002833 265.4158  94.6677 14.98330916 36174,6950.19,96.107,574.024,570.086,0.0
55659.0,STARLINK-5477,PAYLOAD,2023-10-05 08:01:03,14.98337186,0.0002775,70.0004,239.4062,265.2529,94.8314,0.00013452,1.513e-05,0.0,0 STARLINK-5477,1 55659U 23021AH  23278.33407328  .00001513  00000-0  13452-3 0  9998,2 55659  70.0004 239.4062 0002775 265.2529  94.8314 14.98337186 36212,6950.171,96.107,573.964,570.107,0.0
55659.0,STARLINK-5477,PAYLOAD,2023-10-05 14:25:36,14.98341739,0.0002463,70.002,238.7293,276.7206,83.3673,-0.00021462,-2.653e-05,0.0,0 STARLINK-5477,1 55659U 23021AH  23278.60111885 -.00002653  00000-0 -21462-3 0  9996,2 55659  70.0020 238.7293 0002463 276.7206  83.3673 14.98341739 36558,6950.157,96.106,573.733,570.31,0.0
55659.0,STARLINK-5477,PAYLOAD,2023-10-06 01:38:33,14.9833412,0.0002958,70.0006,237.5515,268.2982,91.7839,-0.00011268,-1.437e-05,0.0,0 STARLINK-5477,1 55659U 23021AH  23279.06844022 -.00001437  00000-0 -11268-3 0  9995,2 55659  70.0006 237.5515 0002958 268.2982  91.7839 14.98334120 36320,6950.18,96.107,574.101,569.989,0.0
55659.0,STARLINK-5477,PAYLOAD,2023-10-06 08:03:05,14.98333813,0.000272,70.0009,236.8812,266.1173,93.9675,-3.2374e-05,-4.79e-06,0.0,0 STARLINK-5477,1 55659U 23021AH  23279.33547872 -.00000479  00000-0 -32374-4 0  9995,2 55659  70.0009 236.8812 0002720 266.1173  93.9675 14.98333813 36668,6950.181,96.107,573.937,570.156,0.0
55659.0,STARLINK-5477,PAYLOAD,2023-10-06 14:27:37,14.98331719,0.0002732,70.0009,236.2083,263.5758,96.509,-1.9513e-05,-3.26e-06,0.0,0 STARLINK-5477,1 55659U 23021AH  23279.60251896 -.00000326  00000-0 -19513-4 0  9994,2 55659  70.0009 236.2083 0002732 263.5758  96.5090 14.98331719 36703,6950.188,96.107,573.951,570.154,0.0
55659.0,STARLINK-5477,PAYLOAD,2023-10-07 01:40:34,14.98331235,0.0002889,70.0006,235.0303,264.1867,95.8963,-3.6397e-05,-5.27e-06,0.0,0 STARLINK-5477,1 55659U 23021AH  23280.06983899 -.00000527  00000-0 -36397-4 0  9993,2 55659  70.0006 235.0303 0002889 264.1867  95.8963 14.98331235 36471,6950.189,96.107,574.062,570.046,0.0
55659.0,STARLINK-5477,PAYLOAD,2023-10-07 06:28:57,14.98335659,0.0002879,70.0007,234.5255,265.1978,94.8853,-6.0735e-06,-1.65e-06,0.0,0 STARLINK-5477,1 55659U 23021AH  23280.27011501 -.00000165  00000-0 -60735-5 0  9990,2 55659  70.0007 234.5255 0002879 265.1978  94.8853 14.98335659 36803,6950.175,96.107,574.041,570.039,0.0
